#dP2019 12 31  0  0  0.00000000      96 __u+U ITR00 FIT  IAC
## 2086 172800.00000000   900.00000000 58848 0.0000000000000
+  115   C01C02C03C05C06C07C08C09C10C11C12C13C14C16C18C19C20
+        C21C22C23C24C25C26C27C28C29C30C32C33C34C35C36C37E01
+        E02E03E04E05E07E08E09E11E12E13E14E15E18E19E21E24E25
+        E26E27E30E31E33E36G01G02G03G04G05G06G07G08G09G10G11
+        G12G13G14G15G16G17G18G19G20G21G22G23G24G25G26G27G28
+        G29G30G31G32J01J02J03J07R01R02R03R04R05R07R08R09R11
+        R12R13R14R15R16R17R18R19R20R21R22R23R26  0  0  0  0
++        13 13 13 12  8  9  9  8  8  8  8  8  8  8  0  7  7
++         8  8  8  8  8  7  8  8  8  8  8  8  8  8  8  8  4
++         4  4  4  4  4  5  4  4  5  4  4  4  4  5  4  4  4
++         4  4  4  5  5  4  3  3  3  4  3  3  3  3  3  3  3
++         3  3  3  3  3  3  4  3  3  3  3  3  3  3  3  3  3
++         3  3  3  3  8  8  8 15  6  5  5  0  5  5  5  7  5
++         5  6  5  5  6  5  5  6  6  5  5  5  8  0  0  0  0
%c M  cc GPS ccc cccc cccc cccc cccc ccccc ccccc ccccc ccccc
%c cc cc ccc ccc cccc cccc cccc cccc ccccc ccccc ccccc ccccc
%f  0.0000000  0.000000000  0.00000000000  0.000000000000000
%f  0.0000000  0.000000000  0.00000000000  0.000000000000000
%i    0    0    0    0      0      0      0      0         0
%i    0    0    0    0      0      0      0      0         0
/* INFORMATION & ANALYSIS CENTER (IAC)            RAPID DATA
/* S/V CLOCKS ARE ALIGNED TO GNSS TIME                      
/* G:C1WC2W R:C1PC2P E:C1XC5X C:C2IC6I J:C1CC2S             
/* PCV:IGS14_2082 OL/AL:FES2004  NONE     YN ORB:CoN CLK:CoN
*  2019 12 31  0 30  0.00000000
PC01 -32324.133548  27061.272175   -822.335268    323.211356
PC02   4485.797727  41919.791666   1090.236784    642.384139
PC03 -14817.153041  39504.702005    287.680053    352.522319
PC05  21907.411281  36034.274344   1329.553116   -107.098698
PC06  -8742.583062  35331.753446  21972.499674    271.838225
PC07 -16582.598310  21825.768620 -31944.432589    132.585375
PC08 -23580.127643  32464.373791  12531.362695    -69.600732
PC09    552.079765  41457.034245   8886.504145    226.291743
PC10    838.336733  26462.710160 -32577.264145   -512.914159
PC11  -3356.764236  27671.015725   -157.024421    -92.060450
PC12 -13130.114650  17811.851047 -16941.312581    306.131602
PC13 -11390.165293  32801.282749  23803.760332    182.204374
PC14   2433.051275  19092.688389  20210.947931    393.368078
PC16  -6338.286562  36493.550201  20349.440769   -884.935747
PC18      0.000000      0.000000      0.000000 999999.999999
PC19 -11816.104039 -20716.274946 -14480.415847    284.795720
PC20   6500.068683 -14795.516774 -22742.685362   -489.195524
PC21 -21564.923347   -182.817129  17729.935471     62.561735
PC22 -23575.542064 -14770.055930   2352.705217   -599.056451
PC23  20237.022018   5413.544058 -18436.237167   -869.103476
PC24 -17152.598444  17654.522932 -13123.783256   -891.703005
PC25   2984.733521  16194.886929 -22529.983189   -465.053004
PC26 -25964.749333   9659.471947   3194.896785    516.104638
PC27  15912.715160  -8086.654705  21436.776580    251.982819
PC28  13029.364959  13088.241720  20925.473655    242.975747
PC29  -3554.327881 -26439.702518  -8188.262945    167.033923
PC30   8722.548954 -24684.033786   9640.771853    248.520730
PC32  21561.226833     21.262600 -17707.386302   -854.526823
PC33  11809.228681  20674.197249  14545.019042   -728.431631
PC34  -8608.767146  24882.070599  -9279.451373   -352.644228
PC35 -13470.853775 -12752.761993 -20832.263466   -715.052831
PC36  -2369.444055 -16345.591778  22517.065168   -858.901432
PC37  26260.372820  -8695.122432  -3739.837793   -939.286432
PE01  25009.896308   8756.251567 -13196.228232   -763.475674
PE02 -25037.038445  -8722.148003  13146.196834    102.394343
PE03 -20034.527504 -18661.053143  11258.730771   -249.720474
PE04  18624.442290   -445.983918 -23005.320747   -435.789295
PE05  -9710.275172 -27019.433703  -7207.676789   -418.247274
PE07  -6222.511540  19535.651615  21345.410599   -320.087218
PE08 -18432.365603    691.939792  23147.710181   6241.676133
PE09   5907.914306 -19582.740172 -21403.660364   6204.308295
PE11  15208.727558 -25358.352194   1221.918712    583.586009
PE12  20272.380634 -10912.114424  18607.547701   6025.364157
PE13 -15201.449967  25357.797452  -1424.225749    396.899993
PE14  14631.584709  10300.709270  15523.303168   -850.070625
PE15 -20178.866947  11293.723858 -18462.436215    882.519922
PE18 -20941.467010  -6013.195798 -24113.422641   -946.318280
PE19  19429.266067  20232.205928  -9462.186609     -2.185298
PE21   6608.259687  15944.741888 -24046.988416   -574.297878
PE24  15928.345483 -13806.928014  20783.742783   5688.401886
PE25  -6477.794153 -15964.498477  24076.624630   -499.849752
PE26  -1166.345861  24489.946804  16589.393663   3702.567497
PE27 -15816.988512  13859.355873 -20820.179869    313.884263
PE30 -28909.560652   3444.689850  -5297.112863   4263.327176
PE31  28877.967339  -3656.184031   5398.301993   -471.128947
PE33  13327.092443   9426.087088  24704.845917   -471.234592
PE36   1317.769400 -24565.644108 -16449.631117    617.527705
PG01  12027.725998 -20965.349436 -10832.122428   -246.869511
PG02 -21007.245251  12556.368675  -9546.310086   -376.642372
PG03   2360.613859 -15078.942823 -21800.376390    -62.782652
PG04   1849.868244 -24745.932414  -9438.487567    -27.515638
PG05 -22039.388648   4422.216435  14159.709901     -5.421205
PG06 -18637.835964     16.813580 -18883.975207   -168.781988
PG07  -4017.988759 -16265.399460  20787.678814   -181.514265
PG08   7902.234548 -18218.257143  17555.676771    -18.566000
PG09  -6509.714704 -25741.550196    212.317470   -121.073606
PG10  23160.692545  11644.607065   6388.326592   -191.862913
PG11   8052.930108 -25433.567596  -1911.414517   -404.069532
PG12  -7533.264491  12986.752105 -22120.789741    167.552075
PG13 -13188.320004  10194.516457  20535.790695    -23.196638
PG14  15424.046814   4998.474085 -20743.924816    -41.701507
PG15  -6297.974690  19533.974573  16346.585226   -261.987146
PG16  22783.435417   -750.487888  13803.504869   -108.501182
PG17 -13500.440050 -16063.872442 -15893.731274    190.127321
PG18  16709.119648 -20421.505479  -3053.683835    110.243021
PG19 -14941.630310  -8166.336667 -20673.452588   -219.108136
PG20  16195.498946  14357.015668  15431.809522    527.730387
PG21   7239.339351  14816.324181  21651.507342    -62.931725
PG22  11008.608612 -12979.973061 -20149.243519   -780.034391
PG23   -413.411502 -25021.827968  -7949.971029   -146.221515
PG24 -12443.196617  21800.590257  -8283.182421     -6.913008
PG25   7747.905244  16516.775443 -19616.293614    -16.839622
PG26  25999.120089   3529.727047   4790.061468    117.030413
PG27  13489.864019  -6637.234190  21751.107647   -166.566365
PG28 -22323.507627 -13296.631766   5739.558297    747.904336
PG29   4229.342013  26209.980417     15.854085      4.872168
PG30 -14126.999004  -8117.606943  21032.114224   -118.057856
PG31  20411.120277  -1929.970541 -17162.081383    -13.333357
PG32  15193.505798  14683.866625 -16113.713376    171.092712
PJ01 -26288.304059  21895.562732  29704.451482   -326.379311
PJ02 -35138.943178  17638.578308 -10754.509747     -0.536629
PJ03 -18952.847880  30486.954615 -17587.722149    -11.182466
PJ07 -25383.323706  33662.546877     31.570706      0.002773
PR01    153.413663  14546.951977  20943.982460     54.915280
PR02  15487.983785  19714.602913   4897.702651    404.929766
PR03  19139.236705  11531.919704 -12317.349873      7.374622
PR04      0.000000      0.000000      0.000000 999999.999999
PR05  -2319.784417 -15904.531596 -19795.954097     42.207569
PR07 -19028.205777 -11049.834219  12894.312789    -31.401125
PR08 -11791.614229   3131.243687  22444.142954     13.402236
PR09 -13157.580930  -7161.561074  20678.222930    108.882201
PR11 -22560.678399   9278.033266  -7511.672459     14.815085
PR12  -9383.095083  12184.129564 -20314.962443     92.601445
PR13  10071.964869   8170.061915 -21981.690911    -32.903350
PR14  23204.881902   -439.451246 -10563.447368     46.583045
PR15  22960.207896  -8846.645434   6761.994572    105.573521
PR16   8881.652426 -12520.778048  20389.179066     -0.715240
PR17  10158.295260   3065.774219  23211.783539    288.285067
PR18  12367.381745 -14340.188397  17082.981294     19.841411
PR19   8710.028369 -23894.294370   2016.681112    -71.590296
PR20  -1287.815269 -19535.878545 -16312.350429   -400.250461
PR21 -10310.132787  -2228.620229 -23216.574507    -95.106431
PR22 -12130.884958  16887.447380 -14847.357648     -7.736376
PR23  -5432.415263  24543.445529   4330.180089    276.642498
PR26    436.457482 -21845.728942 -13169.350502   -413.806708
EOF
